[{"OBJECT_NAME":"TOMORROW-S1","OBJECT_ID":"2024-149M","EPOCH":"2026-03-09T17:23:34.533600","MEAN_MOTION":15.31198363,"ECCENTRICITY":0.00018188,"INCLINATION":97.3791,"RA_OF_ASC_NODE":149.6044,"ARG_OF_PERICENTER":207.204,"MEAN_ANOMALY":152.9106,"EPHEMERIS_TYPE":0,"CLASSIFICATION_TYPE":"U","NORAD_CAT_ID":60479,"ELEMENT_SET_NO":999,"REV_AT_EPOCH":8686,"BSTAR":0.0002885603,"MEAN_MOTION_DOT":8.62e-5,"MEAN_MOTION_DDOT":0},{"OBJECT_NAME":"STARLINK-34510","OBJECT_ID":"2025-137C","EPOCH":"2026-03-09T21:21:46.772352","MEAN_MOTION":15.30218975,"ECCENTRICITY":0.00010989,"INCLINATION":53.1574,"RA_OF_ASC_NODE":334.4486,"ARG_OF_PERICENTER":105.7139,"MEAN_ANOMALY":254.3983,"EPHEMERIS_TYPE":0,"CLASSIFICATION_TYPE":"U","NORAD_CAT_ID":64596,"ELEMENT_SET_NO":999,"REV_AT_EPOCH":4076,"BSTAR":0.00095347492,"MEAN_MOTION_DOT":0.00028003,"MEAN_MOTION_DDOT":0}]
